ONEWEB-0422             
1 51626U 22012E   23059.49213241 -.00002132  00000+0 -55646-2 0  9999
2 51626  87.9072 245.2111 0000595  72.7648 287.3549 13.17175959 56449
ONEWEB-0422             
1 51626U 22012E   23059.56810104  .00000060  00000+0  12273-3 0  9994
2 51626  87.9071 245.1959 0000708  66.2795 293.8411 13.17164402 55174
ONEWEB-0422             
1 51626U 22012E   23059.87195717  .00000042  00000+0  75455-4 0  9996
2 51626  87.9072 245.1354 0000692  67.2187 292.9017 13.17164675 55211
ONEWEB-0422             
1 51626U 22012E   23060.78352514  .00000171  00000+0  40940-3 0  9991
2 51626  87.9072 244.9539 0000685  70.5667 289.5538 13.17165238 55334
ONEWEB-0422             
1 51626U 22012E   23061.01141791  .00000010  00000+0 -68467-5 0  9990
2 51626  87.9073 244.9085 0000657  70.8355 289.2847 13.17164989 56644
ONEWEB-0422             
1 51626U 22012E   23061.77105822  .00000095  00000+0  21198-3 0  9998
2 51626  87.9075 244.7573 0000644  74.4186 285.7016 13.17165080 55465
ONEWEB-0422             
1 51626U 22012E   23062.22684255  .00000034  00000+0  55271-4 0  9994
2 51626  87.9076 244.6667 0000621  76.4445 283.6755 13.17165268 56808
ONEWEB-0422             
1 51626U 22012E   23062.45473479  .00000063  00000+0  13123-3 0  9994
2 51626  87.9078 244.6213 0000614  77.2345 282.8854 13.17165090 55552
ONEWEB-0422             
1 51626U 22012E   23062.75859124 -.00000029  00000+0 -10967-3 0  9999
2 51626  87.9078 244.5608 0000607  78.5691 281.5508 13.17165152 55594
